OBJECT_NAME,OBJECT_ID,EPOCH,MEAN_MOTION,ECCENTRICITY,INCLINATION,RA_OF_ASC_NODE,ARG_OF_PERICENTER,MEAN_ANOMALY,EPHEMERIS_TYPE,CLASSIFICATION_TYPE,NORAD_CAT_ID,ELEMENT_SET_NO,REV_AT_EPOCH,BSTAR,MEAN_MOTION_DOT,MEAN_MOTION_DDOT
COSMOS 2534 (758),2019-030A,2026-07-23T08:44:25.273824,2.13102412,.0013416,64.3713,191.3984,275.1477,257.7839,0,U,44299,999,5569,0,.91E-6,0
BEIDOU-3 IGSO-2 (C39),2019-035A,2026-07-23T18:40:37.456320,1.00289602,.00390932,55.2554,158.5416,213.1598,328.3926,0,U,44337,999,2603,0,-.115E-5,0
GPS BIII-2  (PRN 18),2019-056A,2026-07-24T01:02:43.839744,2.00570584,.00638078,55.6171,329.6779,198.3290,161.9999,0,U,44506,999,5081,0,-.111E-5,0
BEIDOU-3 M24 (C46),2019-061A,2026-07-23T05:14:25.858176,1.86229305,.00087765,54.3973,181.5127,0.5938,359.3899,0,U,44542,999,4646,0,.73E-6,0
BEIDOU-3 M23 (C45),2019-061B,2026-07-23T21:10:55.367328,1.86227559,.00060373,54.3961,181.4586,342.2650,14.4138,0,U,44543,999,4647,0,.67E-6,0
EUTELSAT 5 WEST B (EGNOS/PRN 121),2019-067A,2026-07-24T06:04:05.192832,1.00272314,.0003316,0.0714,329.6024,151.1977,267.1832,0,U,44624,999,2480,0,-.37E-6,0
BEIDOU-3 M22 (C44),2019-078A,2026-07-24T03:11:03.742080,1.86227293,.00055583,53.8997,298.5263,49.2122,310.8760,0,U,44793,999,4533,0,-.84E-6,0
BEIDOU-3 M21 (C43),2019-078B,2026-07-22T15:52:44.795712,1.86227707,.00035105,53.8746,298.5385,49.7374,310.3307,0,U,44794,999,4531,0,-.94E-6,0
COSMOS 2544 (759),2019-088A,2026-07-23T03:53:54.124800,2.13102883,.0012036,65.5856,72.5304,253.5575,106.3785,0,U,44850,999,5148,0,-.46E-6,0
BEIDOU-3 M19 (C41),2019-090A,2026-07-23T03:59:47.536224,1.86231503,.00165277,56.5910,61.6011,296.6472,239.5314,0,U,44864,999,4490,0,-.73E-6,0
BEIDOU-3 M20 (C42),2019-090B,2026-07-21T23:09:05.641632,1.86231478,.00142312,56.5915,61.6754,312.1692,227.7948,0,U,44865,999,4486,0,-.79E-6,0
BEIDOU-3 G2 (C60),2020-017A,2026-07-24T02:44:38.740128,1.00272742,.00021601,2.9375,47.8589,59.2772,315.8991,0,U,45344,999,2363,0,-.138E-5,0
COSMOS 2545 (760),2020-018A,2026-07-23T08:34:35.505696,2.13102568,.0009943,64.3311,311.1469,230.3767,129.5577,0,U,45358,999,4943,0,-.88E-6,0
BEIDOU-3 G3 (C61),2020-040A,2026-07-24T06:37:09.522624,1.00272711,.00022594,2.5361,67.5023,318.7268,125.6152,0,U,45807,999,2244,0,-.351E-5,0
GPS BIII-3  (PRN 23),2020-041A,2026-07-22T20:59:52.803744,2.00558039,.00656102,56.6939,27.5596,204.6648,328.6198,0,U,45854,999,4475,0,-.79E-6,0
GALAXY 30 (WAAS/PRN 135),2020-056C,2026-07-24T05:23:22.322688,1.00270186,.00024257,0.0239,56.9335,66.5104,134.3396,0,U,46114,999,2166,0,0,0
COSMOS 2547 (705K),2020-075A,2026-07-24T00:23:39.033600,2.13100049,.00094679,64.6018,191.2464,239.6171,120.2959,0,U,46805,999,4469,0,.88E-6,0
GPS BIII-4  (PRN 14),2020-078A,2026-07-24T04:14:40.197696,2.00565160,.00747788,53.9765,209.2782,207.9743,162.9921,0,U,46826,999,4225,0,.86E-6,0
GPS BIII-5  (PRN 11),2021-054A,2026-07-24T04:53:13.816896,2.00566956,.00267275,55.1544,330.9717,228.6396,348.0168,0,U,48859,999,3749,0,-.111E-5,0
QZS-1R (QZSS/PRN 196),2021-096A,2026-07-23T13:00:38.746368,1.00242971,.0755622,37.5340,79.0424,272.3546,275.8173,0,U,49336,999,1737,0,-.328E-5,0
GSAT0223 (GALILEO 27),2021-116A,2026-07-23T08:33:13.487904,1.70476582,.0002573,57.1472,340.6987,195.8293,161.8890,0,U,49809,999,2879,0,-.106E-5,0
GSAT0224 (GALILEO 28),2021-116B,2026-07-23T04:20:05.008992,1.70476626,.0002038,57.1469,340.7020,183.2732,179.1905,0,U,49810,999,2882,0,-.106E-5,0
COSMOS 2557 (706K),2022-075A,2026-07-23T05:48:25.710336,2.13102385,.00111025,64.2748,313.2153,270.4489,89.4436,0,U,52984,999,3148,0,-.9E-6,0
COSMOS 2559 (707K),2022-130A,2026-07-21T15:41:37.131936,2.13101809,.0013183,64.2486,313.3533,181.8332,178.1821,0,U,54031,999,2942,0,-.9E-6,0
COSMOS 2564 (761),2022-161A,2026-07-24T07:30:05.160672,2.13102090,.00121433,64.7443,191.4793,224.5905,135.3184,0,U,54377,999,2842,0,.86E-6,0
GPS BIII-6  (PRN 28),2023-009A,2026-07-22T20:35:38.715936,2.00569256,.0006263,55.1243,147.1168,321.9041,41.9521,0,U,55268,999,2596,0,.7E-7,0
BEIDOU-3 G4 (C62),2023-066A,2026-07-24T06:45:31.220640,1.00270133,.00052156,0.4540,341.4905,182.1061,19.8352,0,U,56564,999,1176,0,-.275E-5,0
NVS-01 (IRNSS-1J),2023-076A,2026-07-24T06:42:31.507776,1.00274843,.0002903,2.0813,242.6576,16.2872,273.2122,0,U,56759,999,1148,0,-.329E-5,0
COSMOS 2569 (703K),2023-114A,2026-07-22T22:00:32.884992,2.13103906,.00094297,65.3229,71.4159,295.2211,64.7491,0,U,57517,999,2302,0,-.48E-6,0
BEIDOU-3 M28 (C50),2023-207A,2026-07-23T06:36:42.976224,1.86229831,.00021529,55.7853,61.0858,10.4773,349.5911,0,U,58654,999,1751,0,-.74E-6,0
BEIDOU-3 M26 (C48),2023-207B,2026-07-23T01:45:06.336864,1.86229895,.00016319,55.7875,61.0793,323.8282,36.2241,0,U,58655,999,1749,0,-.76E-6,0
